{"fetched_at":"2026-07-10T18:08:29.043Z","source":"https://celestrak.org/NORAD/elements/gp.php?NAME=RCM&FORMAT=JSON","constellation":"rcm","records":[{"OBJECT_NAME":"RCM-1","OBJECT_ID":"2019-033A","EPOCH":"2026-07-10T06:48:44.118144","CLASSIFICATION_TYPE":"U","MEAN_MOTION":14.925899,"ECCENTRICITY":0.00015258,"INCLINATION":97.76,"RA_OF_ASC_NODE":198.4038,"ARG_OF_PERICENTER":91.6919,"MEAN_ANOMALY":19.8093,"EPHEMERIS_TYPE":0,"NORAD_CAT_ID":44322,"ELEMENT_SET_NO":999,"REV_AT_EPOCH":38552,"BSTAR":0.000032256203,"MEAN_MOTION_DOT":0.00000276,"MEAN_MOTION_DDOT":0},{"OBJECT_NAME":"RCM-3","OBJECT_ID":"2019-033B","EPOCH":"2026-07-10T06:51:25.996320","CLASSIFICATION_TYPE":"U","MEAN_MOTION":14.9258703,"ECCENTRICITY":0.00015027,"INCLINATION":97.7602,"RA_OF_ASC_NODE":198.5002,"ARG_OF_PERICENTER":89.9681,"MEAN_ANOMALY":270.1711,"EPHEMERIS_TYPE":0,"NORAD_CAT_ID":44323,"ELEMENT_SET_NO":999,"REV_AT_EPOCH":38554,"BSTAR":0.000004798304,"MEAN_MOTION_DOT":-6e-8,"MEAN_MOTION_DDOT":0},{"OBJECT_NAME":"RCM-2","OBJECT_ID":"2019-033C","EPOCH":"2026-07-10T07:23:24.645696","CLASSIFICATION_TYPE":"U","MEAN_MOTION":14.92587829,"ECCENTRICITY":0.00015041,"INCLINATION":97.76,"RA_OF_ASC_NODE":198.4723,"ARG_OF_PERICENTER":92.3129,"MEAN_ANOMALY":267.8263,"EPHEMERIS_TYPE":0,"NORAD_CAT_ID":44324,"ELEMENT_SET_NO":999,"REV_AT_EPOCH":38553,"BSTAR":0.000016390144,"MEAN_MOTION_DOT":0.00000113,"MEAN_MOTION_DDOT":0}]}
