RCM-1                   
1 44322U 19033A   26191.28384396  .00000276  00000+0  32256-4 0  9999
2 44322  97.7600 198.4038 0001525  91.6919  19.8093 14.92589900385527
RCM-3                   
1 44323U 19033B   26191.28571755 -.00000006  00000+0  47983-5 0  9993
2 44323  97.7602 198.5002 0001502  89.9681 270.1711 14.92587030385546
RCM-2                   
1 44324U 19033C   26191.30792414  .00000113  00000+0  16390-4 0  9999
2 44324  97.7600 198.4723 0001504  92.3129 267.8263 14.92587829385531
